start=new Date('2023-01-31T00:00:00.000Z').valueOf();
sats=[{"CENTER_NAME":"EARTH","LAUNCH_DATE":"2020-06-13","PERIAPSIS":"517.110","INCLINATION":"53.0546","SEMIMAJOR_AXIS":"6895.974","MEAN_ANOMALY":"212.6093","ELEMENT_SET_NO":"999","SITE":"AFETR","OBJECT_TYPE":"PAYLOAD","EPHEMERIS_TYPE":"0","FILE":"3765849","REV_AT_EPOCH":"14570","GP_ID":"224051687","ARG_OF_PERICENTER":"147.4965","MEAN_MOTION":"15.16035439","TLE_LINE1":"1 45762U 20038AJ  23030.92689929  .00035040  00000-0  18080-2 0  9990","APOAPSIS":"518.568","NORAD_CAT_ID":"45762","RA_OF_ASC_NODE":"259.0142","RCS_SIZE":"LARGE","TIME_SYSTEM":"UTC","MEAN_MOTION_DDOT":"0.0000000000000","OBJECT_NAME":"STARLINK-1499","MEAN_ELEMENT_THEORY":"SGP4","COUNTRY_CODE":"US","MEAN_MOTION_DOT":"0.00035040","BSTAR":"0.00180800000000","DECAY_DATE":null,"EPOCH":"2023-01-30T22:14:44.098656","OBJECT_ID":"2020-038AJ","REF_FRAME":"TEME","CLASSIFICATION_TYPE":"U","ECCENTRICITY":"0.00010570","TLE_LINE2":"2 45762  53.0546 259.0142 0001057 147.4965 212.6093 15.16035439145708","PERIOD":"94.985"},{"SEMIMAJOR_AXIS":"6925.354","MEAN_ANOMALY":"268.6462","LAUNCH_DATE":"2020-06-13","PERIAPSIS":"546.406","CENTER_NAME":"EARTH","INCLINATION":"53.0516","GP_ID":"224051937","REV_AT_EPOCH":"14560","ARG_OF_PERICENTER":"91.4661","MEAN_MOTION":"15.06398366","FILE":"3765849","EPHEMERIS_TYPE":"0","APOAPSIS":"548.032","NORAD_CAT_ID":"45764","RCS_SIZE":"LARGE","TIME_SYSTEM":"UTC","RA_OF_ASC_NODE":"266.1720","TLE_LINE1":"1 45764U 20038AL  23030.95149799  .00001746  00000-0  13605-3 0  9996","SITE":"AFETR","OBJECT_TYPE":"PAYLOAD","ELEMENT_SET_NO":"999","OBJECT_ID":"2020-038AL","EPOCH":"2023-01-30T22:50:09.426336","REF_FRAME":"TEME","DECAY_DATE":null,"MEAN_ELEMENT_THEORY":"SGP4","MEAN_MOTION_DDOT":"0.0000000000000","OBJECT_NAME":"STARLINK-1502","COUNTRY_CODE":"US","MEAN_MOTION_DOT":"0.00001746","BSTAR":"0.00013605000000","TLE_LINE2":"2 45764  53.0516 266.1720 0001174  91.4661 268.6462 15.06398366145609","PERIOD":"95.592","ECCENTRICITY":"0.00011740","CLASSIFICATION_TYPE":"U"},{"SITE":"AFETR","OBJECT_TYPE":"PAYLOAD","ELEMENT_SET_NO":"999","NORAD_CAT_ID":"45766","APOAPSIS":"547.990","TIME_SYSTEM":"UTC","RCS_SIZE":"LARGE","RA_OF_ASC_NODE":"266.2125","TLE_LINE1":"1 45766U 20038AN  23030.94044180  .00001905  00000-0  14676-3 0  9991","REV_AT_EPOCH":"14558","GP_ID":"224050687","ARG_OF_PERICENTER":"86.3922","MEAN_MOTION":"15.06400096","FILE":"3765849","EPHEMERIS_TYPE":"0","INCLINATION":"53.0531","LAUNCH_DATE":"2020-06-13","PERIAPSIS":"546.436","CENTER_NAME":"EARTH","MEAN_ANOMALY":"273.7195","SEMIMAJOR_AXIS":"6925.348","ECCENTRICITY":"0.00011220","CLASSIFICATION_TYPE":"U","PERIOD":"95.592","TLE_LINE2":"2 45766  53.0531 266.2125 0001122  86.3922 273.7195 15.06400096145585","MEAN_MOTION_DOT":"0.00001905","BSTAR":"0.00014676000000","OBJECT_NAME":"STARLINK-1509","MEAN_MOTION_DDOT":"0.0000000000000","MEAN_ELEMENT_THEORY":"SGP4","COUNTRY_CODE":"US","OBJECT_ID":"2020-038AN","EPOCH":"2023-01-30T22:34:14.171520","REF_FRAME":"TEME","DECAY_DATE":null},{"COUNTRY_CODE":"US","MEAN_MOTION_DDOT":"0.0000000000000","MEAN_ELEMENT_THEORY":"SGP4","OBJECT_NAME":"STARLINK-1511","BSTAR":"0.00004012400000","MEAN_MOTION_DOT":"0.00000316","DECAY_DATE":null,"REF_FRAME":"TEME","EPOCH":"2023-01-30T22:23:38.526720","OBJECT_ID":"2020-038AP","CLASSIFICATION_TYPE":"U","ECCENTRICITY":"0.00015280","TLE_LINE2":"2 45767  53.0533 266.2510 0001528  94.9739 265.1424 15.06387346145589","PERIOD":"95.593","CENTER_NAME":"EARTH","LAUNCH_DATE":"2020-06-13","PERIAPSIS":"546.194","INCLINATION":"53.0533","SEMIMAJOR_AXIS":"6925.387","MEAN_ANOMALY":"265.1424","ELEMENT_SET_NO":"999","OBJECT_TYPE":"PAYLOAD","SITE":"AFETR","FILE":"3765849","EPHEMERIS_TYPE":"0","MEAN_MOTION":"15.06387346","REV_AT_EPOCH":"14558","GP_ID":"224050936","ARG_OF_PERICENTER":"94.9739","TLE_LINE1":"1 45767U 20038AP  23030.93308480  .00000316  00000-0  40124-4 0  9990","RCS_SIZE":"LARGE","RA_OF_ASC_NODE":"266.2510","TIME_SYSTEM":"UTC","APOAPSIS":"548.311","NORAD_CAT_ID":"45767"},{"BSTAR":"0.00025513000000","MEAN_MOTION_DOT":"0.00003521","COUNTRY_CODE":"US","MEAN_MOTION_DDOT":"0.0000000000000","MEAN_ELEMENT_THEORY":"SGP4","OBJECT_NAME":"STARLINK-1521","REF_FRAME":"TEME","EPOCH":"2023-01-30T21:57:04.991040","OBJECT_ID":"2020-038AQ","DECAY_DATE":null,"ECCENTRICITY":"0.00011870","CLASSIFICATION_TYPE":"U","PERIOD":"95.592","TLE_LINE2":"2 45768  53.0550 266.3266 0001187  85.2971 274.8154 15.06405538145592","INCLINATION":"53.0550","LAUNCH_DATE":"2020-06-13","PERIAPSIS":"546.375","CENTER_NAME":"EARTH","MEAN_ANOMALY":"274.8154","SEMIMAJOR_AXIS":"6925.332","OBJECT_TYPE":"PAYLOAD","SITE":"AFETR","ELEMENT_SET_NO":"999","RA_OF_ASC_NODE":"266.3266","RCS_SIZE":"LARGE","TIME_SYSTEM":"UTC","NORAD_CAT_ID":"45768","APOAPSIS":"548.019","TLE_LINE1":"1 45768U 20038AQ  23030.91464110  .00003521  00000-0  25513-3 0  9997","MEAN_MOTION":"15.06405538","GP_ID":"224051188","ARG_OF_PERICENTER":"85.2971","REV_AT_EPOCH":"14559","EPHEMERIS_TYPE":"0","FILE":"3765849"},{"SITE":"AFETR","OBJECT_TYPE":"PAYLOAD","ELEMENT_SET_NO":"999","GP_ID":"223993980","REV_AT_EPOCH":"14519","ARG_OF_PERICENTER":"93.5135","MEAN_MOTION":"15.06406104","EPHEMERIS_TYPE":"0","FILE":"3765576","APOAPSIS":"548.000","NORAD_CAT_ID":"45769","TIME_SYSTEM":"UTC","RCS_SIZE":"LARGE","RA_OF_ASC_NODE":"289.8024","TLE_LINE1":"1 45769U 20038AR  23030.14243137  .00001037  00000-0  88507-4 0  9990","PERIAPSIS":"546.390","LAUNCH_DATE":"2020-06-13","CENTER_NAME":"EARTH","INCLINATION":"53.0538","SEMIMAJOR_AXIS":"6925.330","MEAN_ANOMALY":"266.5987","ECCENTRICITY":"0.00011620","CLASSIFICATION_TYPE":"U","TLE_LINE2":"2 45769  53.0538 289.8024 0001162  93.5135 266.5987 15.06406104145196","PERIOD":"95.592","MEAN_MOTION_DDOT":"0.0000000000000","OBJECT_NAME":"STARLINK-1459","MEAN_ELEMENT_THEORY":"SGP4","COUNTRY_CODE":"US","MEAN_MOTION_DOT":"0.00001037","BSTAR":"0.00008850700000","OBJECT_ID":"2020-038AR","EPOCH":"2023-01-30T03:25:06.070368","REF_FRAME":"TEME","DECAY_DATE":null},{"PERIOD":"95.592","TLE_LINE2":"2 45770  53.0524 246.5091 0000850  89.5450 270.5636 15.06395686145856","CLASSIFICATION_TYPE":"U","ECCENTRICITY":"0.00008500","DECAY_DATE":null,"REF_FRAME":"TEME","OBJECT_ID":"2020-038AS","EPOCH":"2023-01-30T20:59:59.279424","BSTAR":"0.00009864300000","MEAN_MOTION_DOT":"0.00001188","COUNTRY_CODE":"US","OBJECT_NAME":"STARLINK-1462","MEAN_MOTION_DDOT":"0.0000000000000","MEAN_ELEMENT_THEORY":"SGP4","TLE_LINE1":"1 45770U 20038AS  23030.87499166  .00001188  00000-0  98643-4 0  9996","RCS_SIZE":"LARGE","RA_OF_ASC_NODE":"246.5091","TIME_SYSTEM":"UTC","NORAD_CAT_ID":"45770","APOAPSIS":"547.815","FILE":"3765849","EPHEMERIS_TYPE":"0","MEAN_MOTION":"15.06395686","ARG_OF_PERICENTER":"89.5450","GP_ID":"224050188","REV_AT_EPOCH":"14585","ELEMENT_SET_NO":"999","OBJECT_TYPE":"PAYLOAD","SITE":"AFETR","MEAN_ANOMALY":"270.5636","SEMIMAJOR_AXIS":"6925.362","INCLINATION":"53.0524","CENTER_NAME":"EARTH","PERIAPSIS":"546.638","LAUNCH_DATE":"2020-06-13"},{"EPOCH":"2023-01-30T20:50:45.176352","OBJECT_ID":"2020-038AT","REF_FRAME":"TEME","DECAY_DATE":null,"MEAN_MOTION_DOT":"-0.00000059","BSTAR":"0.00001489800000","MEAN_ELEMENT_THEORY":"SGP4","MEAN_MOTION_DDOT":"0.0000000000000","OBJECT_NAME":"STARLINK-1463","COUNTRY_CODE":"US","PERIOD":"95.593","TLE_LINE2":"2 45771  53.0522 246.5416 0001207  89.2890 270.8237 15.06393874145855","ECCENTRICITY":"0.00012070","CLASSIFICATION_TYPE":"U","MEAN_ANOMALY":"270.8237","SEMIMAJOR_AXIS":"6925.367","INCLINATION":"53.0522","PERIAPSIS":"546.396","LAUNCH_DATE":"2020-06-13","CENTER_NAME":"EARTH","NORAD_CAT_ID":"45771","APOAPSIS":"548.068","RCS_SIZE":"LARGE","TIME_SYSTEM":"UTC","RA_OF_ASC_NODE":"246.5416","TLE_LINE1":"1 45771U 20038AT  23030.86857843 -.00000059  00000-0  14898-4 0  9993","ARG_OF_PERICENTER":"89.2890","GP_ID":"224050438","REV_AT_EPOCH":"14585","MEAN_MOTION":"15.06393874","FILE":"3765849","EPHEMERIS_TYPE":"0","SITE":"AFETR","OBJECT_TYPE":"PAYLOAD","ELEMENT_SET_NO":"999"},{"MEAN_MOTION_DOT":"0.00000707","BSTAR":"0.00006639200000","MEAN_MOTION_DDOT":"0.0000000000000","MEAN_ELEMENT_THEORY":"SGP4","OBJECT_NAME":"STARLINK-1470","COUNTRY_CODE":"US","EPOCH":"2023-01-30T20:34:48.352512","OBJECT_ID":"2020-038AU","REF_FRAME":"TEME","DECAY_DATE":null,"ECCENTRICITY":"0.00010020","CLASSIFICATION_TYPE":"U","PERIOD":"95.593","TLE_LINE2":"2 45772  53.0506 246.5951 0001002 106.7792 253.3307 15.06385226145868","INCLINATION":"53.0506","LAUNCH_DATE":"2020-06-13","PERIAPSIS":"546.565","CENTER_NAME":"EARTH","MEAN_ANOMALY":"253.3307","SEMIMAJOR_AXIS":"6925.394","SITE":"AFETR","OBJECT_TYPE":"PAYLOAD","ELEMENT_SET_NO":"999","NORAD_CAT_ID":"45772","APOAPSIS":"547.953","RCS_SIZE":"LARGE","TIME_SYSTEM":"UTC","RA_OF_ASC_NODE":"246.5951","TLE_LINE1":"1 45772U 20038AU  23030.85750408  .00000707  00000-0  66392-4 0  9997","GP_ID":"224051688","REV_AT_EPOCH":"14586","ARG_OF_PERICENTER":"106.7792","MEAN_MOTION":"15.06385226","EPHEMERIS_TYPE":"0","FILE":"3765849"},{"SEMIMAJOR_AXIS":"6925.354","MEAN_ANOMALY":"267.9036","LAUNCH_DATE":"2020-06-13","PERIAPSIS":"546.513","CENTER_NAME":"EARTH","INCLINATION":"53.0532","GP_ID":"224051938","ARG_OF_PERICENTER":"92.2070","REV_AT_EPOCH":"14587","MEAN_MOTION":"15.06398331","EPHEMERIS_TYPE":"0","FILE":"3765849","APOAPSIS":"547.924","NORAD_CAT_ID":"45773","RA_OF_ASC_NODE":"246.3254","RCS_SIZE":"LARGE","TIME_SYSTEM":"UTC","TLE_LINE1":"1 45773U 20038AV  23030.91648296  .00001381  00000-0  11161-3 0  9998","SITE":"AFETR","OBJECT_TYPE":"PAYLOAD","ELEMENT_SET_NO":"999","OBJECT_ID":"2020-038AV","EPOCH":"2023-01-30T21:59:44.127744","REF_FRAME":"TEME","DECAY_DATE":null,"MEAN_MOTION_DDOT":"0.0000000000000","MEAN_ELEMENT_THEORY":"SGP4","OBJECT_NAME":"STARLINK-1482","COUNTRY_CODE":"US","MEAN_MOTION_DOT":"0.00001381","BSTAR":"0.00011161000000","TLE_LINE2":"2 45773  53.0532 246.3254 0001019  92.2070 267.9036 15.06398331145870","PERIOD":"95.592","ECCENTRICITY":"0.00010190","CLASSIFICATION_TYPE":"U"}];
